OBJECT_NAME,OBJECT_ID,EPOCH,MEAN_MOTION,ECCENTRICITY,INCLINATION,RA_OF_ASC_NODE,ARG_OF_PERICENTER,MEAN_ANOMALY,EPHEMERIS_TYPE,CLASSIFICATION_TYPE,NORAD_CAT_ID,ELEMENT_SET_NO,REV_AT_EPOCH,BSTAR,MEAN_MOTION_DOT,MEAN_MOTION_DDOT
STARLINK-37531,2026-110N,2026-06-06T20:00:01.999008,15.73968416,.0001647,97.2842,354.1432,74.9034,3.0293,0,U,69136,999,399,-.20717E-1,-.2504488E-1,0
STARLINK-37662,2026-110P,2026-06-06T20:00:01.999008,15.68039217,.0001549,97.2849,354.1253,73.2793,324.7305,0,U,69137,999,399,-.26471E-1,-.2551351E-1,0
STARLINK-37658,2026-110Q,2026-06-06T20:00:01.999008,15.58854162,.0001569,97.2850,354.0844,106.1633,196.5355,0,U,69138,999,399,-.36975E-1,-.24879E-1,0
STARLINK-37659,2026-110R,2026-06-06T20:00:01.999008,15.56941960,.0001747,97.2858,354.0761,104.3431,168.9257,0,U,69139,999,399,-.38248E-1,-.240628E-1,0
STARLINK-37653,2026-110S,2026-06-06T20:00:01.999008,15.55480207,.0001948,97.2855,354.0736,100.4601,166.1652,0,U,69140,999,399,-.41335E-1,-.245541E-1,0
STARLINK-37654,2026-110T,2026-06-06T20:00:01.999008,15.66764909,.000163,97.2844,354.1341,64.1740,355.5365,0,U,69141,999,399,-.2663E-1,-.2450974E-1,0
STARLINK-37655,2026-110U,2026-06-06T20:00:01.999008,15.71056801,.000152,97.2842,354.1431,72.2673,7.0698,0,U,69142,999,399,-.22375E-1,-.2404828E-1,0
STARLINK-37636,2026-110V,2026-06-06T19:25:06.456864,15.80280945,.0002029,97.2837,354.1446,102.7358,257.4136,0,U,69143,999,400,-.31152E-2,-.547481E-2,0
STARLINK-37638,2026-110W,2026-06-06T19:23:57.539040,15.80749623,.0001553,97.2838,354.1454,95.3982,264.7464,0,U,69144,999,400,.32767E-3,.62886E-3,0
STARLINK-37657,2026-110X,2026-06-06T20:00:01.999008,15.65967940,.0001609,97.2854,354.1390,76.3592,353.1087,0,U,69145,999,404,-.28785E-1,-.2550148E-1,0
STARLINK-37639,2026-110Y,2026-06-06T17:50:37.574016,15.80817130,.0001626,97.2842,354.0809,87.6130,272.5325,0,U,69146,999,399,.84519E-3,.164857E-2,0
STARLINK-37661,2026-110Z,2026-06-06T20:00:01.999008,15.59612030,.0001407,97.2851,354.1119,79.7799,286.9114,0,U,69147,999,404,-.36449E-1,-.2519488E-1,0
STARLINK-37395,2026-111A,2026-06-06T17:06:22.963392,15.80895834,.0001148,53.1583,204.1548,143.8005,216.3095,0,U,69148,999,260,.79018E-3,.158313E-2,0
STARLINK-37346,2026-111B,2026-06-06T17:04:53.046912,15.80877423,.0001209,53.1585,204.1483,98.1668,261.9492,0,U,69149,999,260,.79207E-3,.158565E-2,0
STARLINK-37332,2026-111C,2026-06-06T20:00:01.999008,15.80795492,.0001017,53.1585,203.5223,90.5457,249.9533,0,U,69150,999,388,.63633E-3,.126291E-2,0
STARLINK-37297,2026-111D,2026-06-06T17:04:34.125312,15.80911757,.000092,53.1584,204.1461,135.6042,224.5055,0,U,69151,999,260,.10333E-2,.208625E-2,0
STARLINK-37317,2026-111E,2026-06-06T20:03:49.269024,15.80973586,.0001996,53.1584,203.4987,30.4497,329.6641,0,U,69152,999,262,.19154E-2,.397068E-2,0
STARLINK-37374,2026-111F,2026-06-06T20:01:43.518144,15.80926912,.0001097,53.1586,203.4891,308.3458,51.7466,0,U,69153,999,262,.12909E-2,.262642E-2,0
STARLINK-37235,2026-111G,2026-06-06T20:00:01.999008,15.74493536,.0000787,53.1591,203.5306,78.8223,257.2684,0,U,69154,999,388,-.19828E-1,-.2568236E-1,0
STARLINK-37329,2026-111H,2026-06-06T20:04:27.901056,15.80923842,.0000294,53.1585,203.5010,299.7302,60.3691,0,U,69155,999,262,.14722E-2,.300948E-2,0
STARLINK-37345,2026-111J,2026-06-06T17:00:18.451296,15.80899321,.0001111,53.1584,204.1264,102.6268,257.4879,0,U,69156,999,260,.9249E-3,.186056E-2,0
STARLINK-37353,2026-111K,2026-06-06T17:00:00.022176,15.80910385,.0001449,53.1587,204.1246,38.9934,321.1193,0,U,69157,999,260,.11363E-2,.230036E-2,0
STARLINK-37363,2026-111L,2026-06-06T19:59:03.302304,15.81131548,.000156,53.1581,203.4764,85.7007,274.4194,0,U,69158,999,262,.27229E-2,.581374E-2,0
STARLINK-37343,2026-111M,2026-06-06T20:00:01.999008,15.78010443,.0000949,53.1588,203.4723,85.3493,278.9716,0,U,69159,999,388,-.47066E-2,-.748385E-2,0
STARLINK-37328,2026-111N,2026-06-06T19:59:00.990240,15.79901532,.0006497,53.1584,203.4744,230.9535,129.0910,0,U,69160,999,262,.6921E-3,.132127E-2,0
STARLINK-37311,2026-111P,2026-06-06T19:57:54.609120,15.78881435,.0001296,53.1589,203.4722,343.2214,16.8764,0,U,69161,999,262,-.43427E-2,-.720793E-2,0
STARLINK-36286,2026-111Q,2026-06-06T19:56:42.220608,15.79173538,.0004203,53.1585,203.4656,46.1749,313.9620,0,U,69162,999,262,-.50185E-2,-.834132E-2,0
STARLINK-37196,2026-111R,2026-06-06T20:00:01.999008,15.77989403,.0001253,53.1588,203.4851,114.6194,243.2081,0,U,69163,999,388,.48471E-3,.84074E-3,0
STARLINK-36288,2026-111S,2026-06-06T20:00:01.999008,15.78033856,.0001128,53.1588,203.4753,93.9481,268.4850,0,U,69164,999,388,-.15809E-3,-.28E-3,0
STARLINK-37445,2026-111T,2026-06-06T20:00:01.999008,15.78023770,.0000488,53.1587,203.4385,68.5361,311.7447,0,U,69165,999,388,.30293E-3,.52176E-3,0
