STARLINK-37531          
1 69136U 26110N   26157.83335647 -.02504488  00000+0 -20717-1 0  9995
2 69136  97.2842 354.1432 0001647  74.9034   3.0293 15.73968416  3994
STARLINK-37662          
1 69137U 26110P   26157.83335647 -.02551351  00000+0 -26471-1 0  9990
2 69137  97.2849 354.1253 0001549  73.2793 324.7305 15.68039217  3997
STARLINK-37658          
1 69138U 26110Q   26157.83335647 -.02487900  00000+0 -36975-1 0  9999
2 69138  97.2850 354.0844 0001569 106.1633 196.5355 15.58854162  3999
STARLINK-37659          
1 69139U 26110R   26157.83335647 -.02406280  00000+0 -38248-1 0  9997
2 69139  97.2858 354.0761 0001747 104.3431 168.9257 15.56941960  3995
STARLINK-37653          
1 69140U 26110S   26157.83335647 -.02455410  00000+0 -41335-1 0  9999
2 69140  97.2855 354.0736 0001948 100.4601 166.1652 15.55480207  3995
STARLINK-37654          
1 69141U 26110T   26157.83335647 -.02450974  00000+0 -26630-1 0  9991
2 69141  97.2844 354.1341 0001630  64.1740 355.5365 15.66764909  3996
STARLINK-37655          
1 69142U 26110U   26157.83335647 -.02404828  00000+0 -22375-1 0  9991
2 69142  97.2842 354.1431 0001520  72.2673   7.0698 15.71056801  3997
STARLINK-37636          
1 69143U 26110V   26157.80910251 -.00547481  00000+0 -31152-2 0  9994
2 69143  97.2837 354.1446 0002029 102.7358 257.4136 15.80280945  4001
STARLINK-37638          
1 69144U 26110W   26157.80830485  .00062886  00000+0  32767-3 0  9998
2 69144  97.2838 354.1454 0001553  95.3982 264.7464 15.80749623  4001
STARLINK-37657          
1 69145U 26110X   26157.83335647 -.02550148  00000+0 -28785-1 0  9992
2 69145  97.2854 354.1390 0001609  76.3592 353.1087 15.65967940  4042
STARLINK-37639          
1 69146U 26110Y   26157.74349044  .00164857  00000+0  84519-3 0  9992
2 69146  97.2842 354.0809 0001626  87.6130 272.5325 15.80817130  3990
STARLINK-37661          
1 69147U 26110Z   26157.83335647 -.02519488  00000+0 -36449-1 0  9992
2 69147  97.2851 354.1119 0001407  79.7799 286.9114 15.59612030  4046
STARLINK-37395          
1 69148U 26111A   26157.71276578  .00158313  00000+0  79018-3 0  9991
2 69148  53.1583 204.1548 0001148 143.8005 216.3095 15.80895834  2609
STARLINK-37346          
1 69149U 26111B   26157.71172508  .00158565  00000+0  79207-3 0  9999
2 69149  53.1585 204.1483 0001209  98.1668 261.9492 15.80877423  2606
STARLINK-37332          
1 69150U 26111C   26157.83335647  .00126291  00000+0  63633-3 0  9996
2 69150  53.1585 203.5223 0001017  90.5457 249.9533 15.80795492  3880
STARLINK-37297          
1 69151U 26111D   26157.71150608  .00208625  00000+0  10333-2 0  9996
2 69151  53.1584 204.1461 0000920 135.6042 224.5055 15.80911757  2605
STARLINK-37317          
1 69152U 26111E   26157.83598691  .00397068  00000+0  19154-2 0  9998
2 69152  53.1584 203.4987 0001996  30.4497 329.6641 15.80973586  2629
STARLINK-37374          
1 69153U 26111F   26157.83453146  .00262642  00000+0  12909-2 0  9994
2 69153  53.1586 203.4891 0001097 308.3458  51.7466 15.80926912  2621
STARLINK-37235          
1 69154U 26111G   26157.83335647 -.02568236  00000+0 -19828-1 0  9998
2 69154  53.1591 203.5306 0000787  78.8223 257.2684 15.74493536  3882
STARLINK-37329          
1 69155U 26111H   26157.83643404  .00300948  00000+0  14722-2 0  9991
2 69155  53.1585 203.5010 0000294 299.7302  60.3691 15.80923842  2620
STARLINK-37345          
1 69156U 26111J   26157.70854689  .00186056  00000+0  92490-3 0  9998
2 69156  53.1584 204.1264 0001111 102.6268 257.4879 15.80899321  2609
STARLINK-37353          
1 69157U 26111K   26157.70833359  .00230036  00000+0  11363-2 0  9997
2 69157  53.1587 204.1246 0001449  38.9934 321.1193 15.80910385  2600
STARLINK-37363          
1 69158U 26111L   26157.83267711  .00581374  00000+0  27229-2 0  9997
2 69158  53.1581 203.4764 0001560  85.7007 274.4194 15.81131548  2627
STARLINK-37343          
1 69159U 26111M   26157.83335647 -.00748385  00000+0 -47066-2 0  9992
2 69159  53.1588 203.4723 0000949  85.3493 278.9716 15.78010443  3889
STARLINK-37328          
1 69160U 26111N   26157.83265035  .00132127  00000+0  69210-3 0  9992
2 69160  53.1584 203.4744 0006497 230.9535 129.0910 15.79901532  2621
STARLINK-37311          
1 69161U 26111P   26157.83188205 -.00720793  00000+0 -43427-2 0  9991
2 69161  53.1589 203.4722 0001296 343.2214  16.8764 15.78881435  2625
STARLINK-36286          
1 69162U 26111Q   26157.83104422 -.00834132  00000+0 -50185-2 0  9993
2 69162  53.1585 203.4656 0004203  46.1749 313.9620 15.79173538  2622
STARLINK-37196          
1 69163U 26111R   26157.83335647  .00084074  00000+0  48471-3 0  9995
2 69163  53.1588 203.4851 0001253 114.6194 243.2081 15.77989403  3889
STARLINK-36288          
1 69164U 26111S   26157.83335647 -.00028000  00000+0 -15809-3 0  9994
2 69164  53.1588 203.4753 0001128  93.9481 268.4850 15.78033856  3886
STARLINK-37445          
1 69165U 26111T   26157.83335647  .00052176  00000+0  30293-3 0  9998
2 69165  53.1587 203.4385 0000488  68.5361 311.7447 15.78023770  3888
